[{"OBJECT_NAME":"STARLINK-2741","OBJECT_ID":"2021-044AY","EPOCH":"2026-03-09T10:45:00.319104","MEAN_MOTION":15.30197658,"ECCENTRICITY":0.00012471,"INCLINATION":53.1596,"RA_OF_ASC_NODE":79.049,"ARG_OF_PERICENTER":97.7321,"MEAN_ANOMALY":262.3821,"EPHEMERIS_TYPE":0,"CLASSIFICATION_TYPE":"U","NORAD_CAT_ID":48684,"ELEMENT_SET_NO":999,"REV_AT_EPOCH":26429,"BSTAR":1.7768774e-5,"MEAN_MOTION_DOT":1.67e-6,"MEAN_MOTION_DDOT":0},{"OBJECT_NAME":"COSMOS 1782","OBJECT_ID":"1986-074A","EPOCH":"2026-03-09T22:40:22.374624","MEAN_MOTION":15.33314157,"ECCENTRICITY":0.00054418,"INCLINATION":82.5242,"RA_OF_ASC_NODE":238.1482,"ARG_OF_PERICENTER":197.7479,"MEAN_ANOMALY":162.3574,"EPHEMERIS_TYPE":0,"CLASSIFICATION_TYPE":"U","NORAD_CAT_ID":16986,"ELEMENT_SET_NO":999,"REV_AT_EPOCH":13134,"BSTAR":0.00042191031,"MEAN_MOTION_DOT":0.00013623,"MEAN_MOTION_DDOT":0}]
